STARLINK-2022           
1 47643U 21012Z   23252.08435835  .00021827  00000+0  14802-2 0  9996
2 47643  53.0521 188.4651 0001257  89.8147 270.2986 15.06387792142196
